COMMENT,ORIGINATOR,NORAD_CAT_ID,OBJECT_NAME,OBJECT_TYPE,CLASSIFICATION_TYPE,INTLDES,EPOCH,EPOCH_MICROSECONDS,MEAN_MOTION,ECCENTRICITY,INCLINATION,RA_OF_ASC_NODE,ARG_OF_PERICENTER,MEAN_ANOMALY,EPHEMERIS_TYPE,ELEMENT_SET_NO,REV_AT_EPOCH,BSTAR,MEAN_MOTION_DOT,MEAN_MOTION_DDOT,FILE,TLE_LINE0,TLE_LINE1,TLE_LINE2,OBJECT_ID,OBJECT_NUMBER,SEMIMAJOR_AXIS,PERIOD,APOGEE,PERIGEE,DECAYED
"GENERATED VIA SPACETRACK.ORG API","18 SPCS","55102","SPACEBEE-157","PAYLOAD","U","23001CX","2023-02-25 09:14:16","73664","15.15687281","0.0016285","97.4924","117.7449","36.8954","323.3395","0","999","814","0.00084409","0.00016078","0","3837605","0 SPACEBEE-157","1 55102U 23001CX  23056.38490826  .00016078  00000-0  84409-3 0  9995","2 55102  97.4924 117.7449 0016285  36.8954 323.3395 15.15687281  8145","2023-001CX","55102","6897.030","95.006","530.127","507.663","0"
"GENERATED VIA SPACETRACK.ORG API","18 SPCS","55102","SPACEBEE-157","PAYLOAD","U","23001CX","2023-02-25 17:09:35","964576","15.15698104","0.0016268","97.4926","118.0708","35.8895","324.3427","0","999","819","0.00083648","0.00015936","0","3839003","0 SPACEBEE-157","1 55102U 23001CX  23056.71499959  .00015936  00000-0  83648-3 0  9994","2 55102  97.4926 118.0708 0016268  35.8895 324.3427 15.15698104  8191","2023-001CX","55102","6896.997","95.006","530.082","507.642","0"
"GENERATED VIA SPACETRACK.ORG API","18 SPCS","55102","SPACEBEE-157","PAYLOAD","U","23001CX","2023-02-26 02:39:59","490144","15.1571569","0.0016241","97.4924","118.4615","34.6405","325.5882","0","999","825","0.0010035","0.0001915","0","3841853","0 SPACEBEE-157","1 55102U 23001CX  23057.11110521  .00019150  00000-0  10035-2 0  9995","2 55102  97.4924 118.4615 0016241  34.6405 325.5882 15.15715690  8250","2023-001CX","55102","6896.944","95.005","530.010","507.607","0"
"GENERATED VIA SPACETRACK.ORG API","18 SPCS","55102","SPACEBEE-157","PAYLOAD","U","23001CX","2023-02-26 15:20:30","241824","15.1573938","0.0016199","97.4925","118.9826","32.9791","327.2448","0","999","833","0.0011231","0.00021461","0","3842377","0 SPACEBEE-157","1 55102U 23001CX  23057.63923891  .00021461  00000-0  11231-2 0  9991","2 55102  97.4925 118.9826 0016199  32.9791 327.2448 15.15739380  8339","2023-001CX","55102","6896.872","95.003","529.909","507.565","0"
"GENERATED VIA SPACETRACK.ORG API","18 SPCS","55102","SPACEBEE-157","PAYLOAD","U","23001CX","2023-02-26 21:40:45","405120","15.15748043","0.0016192","97.4926","119.2432","32.138","328.0836","0","999","837","0.0010446","0.00019957","0","3843368","0 SPACEBEE-157","1 55102U 23001CX  23057.90330330  .00019957  00000-0  10446-2 0  9995","2 55102  97.4926 119.2432 0016192  32.1380 328.0836 15.15748043  8376","2023-001CX","55102","6896.845","95.003","529.878","507.543","0"
"GENERATED VIA SPACETRACK.ORG API","18 SPCS","55102","SPACEBEE-157","PAYLOAD","U","23001CX","2023-02-27 04:01:00","385248","15.15759268","0.0016162","97.4928","119.5037","31.2429","328.976","0","999","841","0.0010447","0.00019965","0","3846396","0 SPACEBEE-157","1 55102U 23001CX  23058.16736557  .00019965  00000-0  10447-2 0  9995","2 55102  97.4928 119.5037 0016162  31.2429 328.9760 15.15759268  8414","2023-001CX","55102","6896.811","95.002","529.823","507.530","0"
"GENERATED VIA SPACETRACK.ORG API","18 SPCS","55102","SPACEBEE-157","PAYLOAD","U","23001CX","2023-02-27 21:26:39","957792","15.15816925","0.0016117","97.4927","120.2206","28.9692","331.2431","0","999","852","0.0017505","0.00033614","0","3846812","0 SPACEBEE-157","1 55102U 23001CX  23058.89351803  .00033614  00000-0  17505-2 0  9991","2 55102  97.4927 120.2206 0016117  28.9692 331.2431 15.15816925  8523","2023-001CX","55102","6896.637","94.998","529.617","507.386","0"
"GENERATED VIA SPACETRACK.ORG API","18 SPCS","55102","SPACEBEE-157","PAYLOAD","U","23001CX","2023-02-28 03:46:53","851008","15.15834864","0.0016118","97.4926","120.4813","28.1716","332.0385","0","999","856","0.001637","0.00031437","0","3847088","0 SPACEBEE-157","1 55102U 23001CX  23059.15756772  .00031437  00000-0  16370-2 0  9995","2 55102  97.4926 120.4813 0016118  28.1716 332.0385 15.15834864  8561","2023-001CX","55102","6896.582","94.997","529.563","507.331","0"
"GENERATED VIA SPACETRACK.ORG API","18 SPCS","55102","SPACEBEE-157","PAYLOAD","U","23001CX","2023-02-28 03:46:53","851008","15.15834864","0.0016118","97.4926","120.4813","28.1716","332.0385","0","999","856","0.001637","0.00031437","0","3847542","0 SPACEBEE-157","1 55102U 23001CX  23059.15756772  .00031437  00000-0  16370-2 0  9995","2 55102  97.4926 120.4813 0016118  28.1716 332.0385 15.15834864  8561","2023-001CX","55102","6896.582","94.997","529.563","507.331","0"
"GENERATED VIA SPACETRACK.ORG API","18 SPCS","55102","SPACEBEE-157","PAYLOAD","U","23001CX","2023-02-28 21:12:30","809952","15.15870373","0.0016011","97.4924","121.1979","25.834","334.3689","0","999","867","0.0010144","0.00019442","0","3847656","0 SPACEBEE-157","1 55102U 23001CX  23059.88368993  .00019442  00000-0  10144-2 0  9994","2 55102  97.4924 121.1979 0016011  25.8340 334.3689 15.15870373  8678","2023-001CX","55102","6896.474","94.995","529.381","507.298","0"
"GENERATED VIA SPACETRACK.ORG API","18 SPCS","55102","SPACEBEE-157","PAYLOAD","U","23001CX","2023-03-01 03:32:43","918656","15.15881937","0.0015983","97.4925","121.4584","24.6232","335.5761","0","999","871","0.0010004","0.00019179","0","3848131","0 SPACEBEE-157","1 55102U 23001CX  23060.14773054  .00019179  00000-0  10004-2 0  9995","2 55102  97.4925 121.4584 0015983  24.6232 335.5761 15.15881937  8715","2023-001CX","55102","6896.439","94.994","529.327","507.282","0"
"GENERATED VIA SPACETRACK.ORG API","18 SPCS","55102","SPACEBEE-157","PAYLOAD","U","23001CX","2023-03-01 03:32:43","918656","15.15881937","0.0015983","97.4925","121.4584","24.6232","335.5761","0","999","871","0.0010004","0.00019179","0","3848834","0 SPACEBEE-157","1 55102U 23001CX  23060.14773054  .00019179  00000-0  10004-2 0  9995","2 55102  97.4925 121.4584 0015983  24.6232 335.5761 15.15881937  8715","2023-001CX","55102","6896.439","94.994","529.327","507.282","0"
"GENERATED VIA SPACETRACK.ORG API","18 SPCS","55102","SPACEBEE-157","PAYLOAD","U","23001CX","2023-03-02 09:38:43","795392","15.15935112","0.0015783","97.4922","122.6961","19.9617","340.223","0","999","890","0.00099111","0.00019027","0","3849429","0 SPACEBEE-157","1 55102U 23001CX  23061.40189578  .00019027  00000-0  99111-3 0  9996","2 55102  97.4922 122.6961 0015783  19.9617 340.2230 15.15935112  8906","2023-001CX","55102","6896.278","94.991","529.027","507.259","0"
"GENERATED VIA SPACETRACK.ORG API","18 SPCS","55102","SPACEBEE-157","PAYLOAD","U","23001CX","2023-03-02 09:38:43","795392","15.15935112","0.0015783","97.4922","122.6961","19.9617","340.223","0","999","890","0.00099111","0.00019027","0","3849487","0 SPACEBEE-157","1 55102U 23001CX  23061.40189578  .00019027  00000-0  99111-3 0  9996","2 55102  97.4922 122.6961 0015783  19.9617 340.2230 15.15935112  8906","2023-001CX","55102","6896.278","94.991","529.027","507.259","0"
"GENERATED VIA SPACETRACK.ORG API","18 SPCS","55102","SPACEBEE-157","PAYLOAD","U","23001CX","2023-03-03 09:24:28","297152","15.15989453","0.001571","97.4921","123.6732","16.3295","343.8441","0","999","905","0.0015365","0.0002962","0","3849784","0 SPACEBEE-157","1 55102U 23001CX  23062.39199418  .00029620  00000-0  15365-2 0  9997","2 55102  97.4921 123.6732 0015710  16.3295 343.8441 15.15989453  9052","2023-001CX","55102","6896.113","94.987","528.812","507.145","0"
"GENERATED VIA SPACETRACK.ORG API","18 SPCS","55102","SPACEBEE-157","PAYLOAD","U","23001CX","2023-03-03 09:24:28","297152","15.15989453","0.001571","97.4921","123.6732","16.3295","343.8441","0","999","905","0.0015365","0.0002962","0","3850163","0 SPACEBEE-157","1 55102U 23001CX  23062.39199418  .00029620  00000-0  15365-2 0  9997","2 55102  97.4921 123.6732 0015710  16.3295 343.8441 15.15989453  9052","2023-001CX","55102","6896.113","94.987","528.812","507.145","0"
"GENERATED VIA SPACETRACK.ORG API","18 SPCS","55102","SPACEBEE-157","PAYLOAD","U","23001CX","2023-03-03 14:09:36","820800","15.16000501","0.0015675","97.492","123.8685","15.7336","344.4381","0","999","908","0.0014705","0.00028349","0","3850400","0 SPACEBEE-157","1 55102U 23001CX  23062.59000950  .00028349  00000-0  14705-2 0  9995","2 55102  97.4920 123.8685 0015675  15.7336 344.4381 15.16000501  9081","2023-001CX","55102","6896.080","94.987","528.754","507.135","0"
"GENERATED VIA SPACETRACK.ORG API","18 SPCS","55102","SPACEBEE-157","PAYLOAD","U","23001CX","2023-03-04 02:49:58","905696","15.16032602","0.0015726","97.492","124.3903","13.905","346.2613","0","999","916","0.001554","0.00029997","0","3851072","0 SPACEBEE-157","1 55102U 23001CX  23063.11804289  .00029997  00000-0  15540-2 0  9999","2 55102  97.4920 124.3903 0015726  13.9050 346.2613 15.16032602  9164","2023-001CX","55102","6895.982","94.985","528.692","507.003","0"
"GENERATED VIA SPACETRACK.ORG API","18 SPCS","55102","SPACEBEE-157","PAYLOAD","U","23001CX","2023-03-04 17:05:22","491168","15.16069272","0.0015647","97.492","124.9762","12.0411","348.1193","0","999","925","0.0014399","0.0002781","0","3851222","0 SPACEBEE-157","1 55102U 23001CX  23063.71206587  .00027810  00000-0  14399-2 0  9995","2 55102  97.4920 124.9762 0015647  12.0411 348.1193 15.16069272  9253","2023-001CX","55102","6895.871","94.982","528.526","506.946","0"
"GENERATED VIA SPACETRACK.ORG API","18 SPCS","55102","SPACEBEE-157","PAYLOAD","U","23001CX","2023-03-04 21:50:30","95520","15.16080249","0.0015646","97.492","125.1718","11.3985","348.7599","0","999","928","0.0014621","0.0002825","0","3851350","0 SPACEBEE-157","1 55102U 23001CX  23063.91007055  .00028250  00000-0  14621-2 0  9993","2 55102  97.4920 125.1718 0015646  11.3985 348.7599 15.16080249  9280","2023-001CX","55102","6895.838","94.982","528.492","506.914","0"
